OBJECT_NAME,OBJECT_ID,EPOCH,MEAN_MOTION,ECCENTRICITY,INCLINATION,RA_OF_ASC_NODE,ARG_OF_PERICENTER,MEAN_ANOMALY,EPHEMERIS_TYPE,CLASSIFICATION_TYPE,NORAD_CAT_ID,ELEMENT_SET_NO,REV_AT_EPOCH,BSTAR,MEAN_MOTION_DOT,MEAN_MOTION_DDOT
ORBCOMM FM06,1997-084G,2026-07-05T10:11:48.686784,14.47612510,.0000704,45.0146,324.9131,200.9001,188.9790,0,U,25118,999,49703,.50427E-3,.173E-4,0
ORBCOMM FM04,1998-007C,2026-07-05T23:55:58.002240,14.35774310,.00418157,107.9630,208.1340,292.5414,67.1304,0,U,25159,999,47929,.32608746E-3,.821E-5,0
ORBCOMM FM19,1998-046C,2026-07-06T05:59:45.530592,14.39529371,.00037273,44.9923,152.9460,7.9238,124.3794,0,U,25415,999,45952,.36650626E-3,.1011E-4,0
ORBCOMM FM20,1998-046D,2026-07-05T00:08:08.910816,14.38089487,.000221,44.9918,166.9799,311.3972,48.6686,0,U,25416,999,45935,.32377E-3,.848E-5,0
ORBCOMM FM27,1998-053G,2026-07-06T03:19:30.021024,14.39175269,.00023493,45.0043,245.3396,260.2482,99.8101,0,U,25481,999,45296,.27670562E-3,.722E-5,0
ORBCOMM FM32,1999-065C,2026-07-06T01:25:42.782880,14.37159434,.00048438,45.0151,83.9075,145.5851,214.5311,0,U,25982,999,38980,.33592746E-3,.866E-5,0
ORBCOMM FM109,2014-040A,2026-07-05T20:43:49.401408,14.58866073,.0001809,47.0042,3.1850,295.7755,64.2944,0,U,40086,999,63707,.13758692E-3,.479E-5,0
ORBCOMM FM110,2015-081D,2026-07-05T22:29:47.201568,14.58910433,.00031032,47.0020,272.7863,181.7021,178.3855,0,U,41182,999,56036,.18356803E-3,.697E-5,0
ORBCOMM FM118,2015-081E,2026-07-05T23:19:14.458368,14.58898820,.00024412,47.0036,272.9591,139.1976,220.9093,0,U,41183,999,56047,.12837867E-3,.436E-5,0
ORBCOMM FM112,2015-081F,2026-07-06T01:03:54.547776,14.58927864,.00040877,46.9971,181.0741,291.5911,68.4539,0,U,41184,999,56170,.18383693E-3,.699E-5,0
ORBCOMM FM113,2015-081G,2026-07-06T00:31:09.306336,14.58875562,.00025808,46.9986,181.5674,288.6890,71.3715,0,U,41185,999,56168,.12225721E-3,.407E-5,0
ORBCOMM FM108,2015-081J,2026-07-06T02:53:54.481344,14.58900299,.00030329,47.0047,92.6775,289.6413,70.4146,0,U,41187,999,56284,.18793335E-3,.718E-5,0
ORBCOMM FM117,2015-081K,2026-07-06T02:04:27.130368,14.58888041,.00034936,47.0011,91.4691,294.8659,65.1863,0,U,41188,999,56288,.19281091E-3,.741E-5,0
ORBCOMM FM116,2015-081L,2026-07-05T23:57:19.729728,14.58900474,.00011838,47.0006,181.6759,203.0740,157.0093,0,U,41189,999,56168,.94106107E-4,.274E-5,0
