ORBCOMM FM06            
1 25118U 97084G   26186.42486906  .00001730  00000+0  50427-3 0  9998
2 25118  45.0146 324.9131 0000704 200.9001 188.9790 14.47612510497031
ORBCOMM FM04            
1 25159U 98007C   26186.99719910  .00000821  00000+0  32609-3 0  9997
2 25159 107.9630 208.1340 0041815 292.5414  67.1304 14.35774310479291
ORBCOMM FM19            
1 25415U 98046C   26187.24983253  .00001011  00000+0  36651-3 0  9990
2 25415  44.9923 152.9460 0003727   7.9238 124.3794 14.39529371459524
ORBCOMM FM20            
1 25416U 98046D   26186.00565869  .00000848  00000+0  32377-3 0  9991
2 25416  44.9918 166.9799 0002210 311.3972  48.6686 14.38089487459359
ORBCOMM FM27            
1 25481U 98053G   26187.13854191  .00000722  00000+0  27671-3 0  9997
2 25481  45.0043 245.3396 0002349 260.2482  99.8101 14.39175269452963
ORBCOMM FM32            
1 25982U 99065C   26187.05952295  .00000866  00000+0  33593-3 0  9991
2 25982  45.0151  83.9075 0004843 145.5851 214.5311 14.37159434389800
ORBCOMM FM109           
1 40086U 14040A   26186.86376622  .00000479  00000+0  13759-3 0  9997
2 40086  47.0042   3.1850 0001809 295.7755  64.2944 14.58866073637072
ORBCOMM FM110           
1 41182U 15081D   26186.93735187  .00000697  00000+0  18357-3 0  9995
2 41182  47.0020 272.7863 0003103 181.7021 178.3855 14.58910433560368
ORBCOMM FM118           
1 41183U 15081E   26186.97169512  .00000436  00000+0  12838-3 0  9992
2 41183  47.0036 272.9591 0002441 139.1976 220.9093 14.58898820560471
ORBCOMM FM112           
1 41184U 15081F   26187.04438134  .00000699  00000+0  18384-3 0  9994
2 41184  46.9971 181.0741 0004087 291.5911  68.4539 14.58927864561703
ORBCOMM FM113           
1 41185U 15081G   26187.02163549  .00000407  00000+0  12226-3 0  9994
2 41185  46.9986 181.5674 0002580 288.6890  71.3715 14.58875562561682
ORBCOMM FM108           
1 41187U 15081J   26187.12076946  .00000718  00000+0  18793-3 0  9991
2 41187  47.0047  92.6775 0003032 289.6413  70.4146 14.58900299562846
ORBCOMM FM117           
1 41188U 15081K   26187.08642512  .00000741  00000+0  19281-3 0  9994
2 41188  47.0011  91.4691 0003493 294.8659  65.1863 14.58888041562884
ORBCOMM FM116           
1 41189U 15081L   26186.99814502  .00000274  00000+0  94106-4 0  9995
2 41189  47.0006 181.6759 0001183 203.0740 157.0093 14.58900474561681
